1 18822U 88  6  A 92 86.82971841  .00001241  00000-0  57209-3 0  2355
2 18822  98.5532 319.6117 0006252 181.0063 179.1135 14.22592376215003
1 18822U 88  6  A 92 91.26076278  .00000871  00000-0  40639-3 0  2389
2 18822  98.5534 323.9130 0006483 168.7859 191.3472 14.22598713215639
1 18822U          92 97.66112417  .00000510  00000-0  24490-3 0 15508
2 18822  98.5516 330.1256 0006979 150.8401 209.3180 14.22606887216542
1 18822U 88006  A 92102.02179730  .00000531  00000-0  23786-3 0 02481
2 18822 098.5505 334.3575 0006484 143.1195 217.0937 14.22611757217163
1 18822U 88006  A 92106.03078436  .00000582  00000-0  26085-3 0 02534
2 18822 098.5499 338.2487 0006568 132.0151 228.2094 14.22615609217733
1 18822U 88  6  A 92110.88374352  .00000401  00000-0  19590-3 0  3239
2 18822  98.5497 342.9571 0007461 115.6898 244.5074 14.22620882218420
1 18822U 88  6  A 92116.29933903  .00000720  00000-0  33841-3 0  3298
2 18822  98.5473 348.2112 0007652 101.8059 258.3959 14.22631329219190
1 18822U 88  6  A 92121.64457278  .00000634  00000-0  30037-3 0  3343
2 18822  98.5479 353.3971 0007706  88.6119 271.5931 14.22638355219952
1 18822U 88  6  A 92125.79414791  .00000635  00000-0  30037-3 0  3369
2 18822  98.5472 357.4229 0007737  79.6046 280.5986 14.22642323220546
1 18822U 88  6  A 92131.06901847  .00000635  00000-0  30037-3 0  3426
2 18822  98.5458   2.5394 0007565  66.0980 294.0933 14.22645975221298
1 18822U 88  6  A 92135.28890299  .00000635  00000-0  30037-3 0  3455
2 18822  98.5465   6.6322 0007648  55.3867 304.8013 14.22650102221892
1 18822U 88  6  A 92139.93076467  .00000111  00000-0  58170-4 0  3496
2 18822  98.5455  11.1347 0007471  43.6913 316.4827 14.22650787222550
1 18822U 88  6  A 92144.15062816  .00000196  00000-0  95997-4 0  3524
2 18822  98.5440  15.2264 0007297  33.1636 326.9964 14.22654266223150
1 18822U 88  6  A 92149.28478469  .00000037  00000-0  24959-4 0  3577
2 18822  98.5444  20.2060 0007029  19.7055 340.4378 14.22656912223882
1 18822U 88  6  A 92154.06727614  .00000149  00000-0  74854-4 0  3616
2 18822  98.5432  24.8437 0006686   6.1915 353.9343 14.22660020224562
1 18822U 88  6  A 92158.56843946  .00000051  00000-0  31246-4 0  3634
2 18822  98.5418  29.2069 0006337 353.8593   6.2524 14.22661513225202
1 18822U 88  6  A 92162.92893509  .00000084  00000-0  45957-4 0  3707
2 18822  98.5422  33.4348 0006143 340.8098  19.2828 14.22663417225829
1 18822U 88  6  A 92167.85206730 -.00006716  00000-0 -29995-2 0  3733
2 18822  98.5420  38.2091 0005706 324.5569  35.5252 14.22661233226525
1 18822U 88  6  A 92172.07188673  .00000097  00000-0  51629-4 0  3799
2 18822  98.5405  42.2987 0005650 312.1809  47.8891 14.22668882227124
1 18822U 88  6  A 92176.08071046  .00000097  00000-0  51629-4 0  3845
2 18822  98.5397  46.1843 0005452 297.9455  62.1181 14.22670947227694
1 18822U 88  6  A 92180.51151223  .00000038  00000-0  25098-4 0  3929
2 18822  98.5401  50.4798 0005304 281.9741  78.0848 14.22671997228327
1 18822U 88  6  A 92184.94229995 -.00000268  00000-0 -11129-3 0  3984
2 18822  98.5383  54.7740 0005195 266.3475  93.7264 14.22673501228957
1 18822U 88  6  A 92189.23243875  .00000157  00000-0  78571-4 0  4031
2 18822  98.5379  58.9321 0005243 252.6339 107.4778 14.22676229229565
1 18822U 88  6  A 92193.52255720  .00000175  00000-0  86483-4 0  4075
2 18822  98.5382  63.0903 0005445 235.9372 124.1290 14.22677577230178
1 18822U 88  6  A 92198.16432728  .00000409  00000-0  19920-3 0  4133
2 18822  98.5369  67.5881 0005779 220.6358 139.4392 14.22681562230836
1 18822U 88  6  A 92202.66543264  .00000285  00000-0  14391-3 0  4175
2 18822  98.5357  71.9494 0005710 206.1840 153.9038 14.22683080231478
1 18822U 88  6  A 92207.51818051  .00000316  00000-0  15750-3 0  4235
2 18822  98.5357  76.6514 0006068 190.2466 169.8571 14.22685069232161
1 18822U 88  6  A 92211.73795815  .00000503  00000-0  24144-3 0  4286
2 18822  98.5353  80.7406 0006370 178.0687 182.0528 14.22686660232761
1 18822U 88  6  A 92217.50497924  .00000368  00000-0  18130-3 0  4329
2 18822  98.5329  86.3267 0006603 161.7832 198.3548 14.22688590233588
1 18822U 88  6  A 92224.25660597  .00000151  00000-0  75556-4 0  4389
2 18822  98.5325  92.8667 0007062 142.8751 217.2933 14.22689952234549
1 18822U 88  6  A 92228.54669187  .00000248  00000-0  12733-3 0  4451
2 18822  98.5318  97.0220 0007287 131.9320 228.2494 14.22692432235152
1 18822U 88  6  A 92232.90710319  .00000016  00000-0  15491-4 0  4492
2 18822  98.5302 101.2443 0007448 120.5064 239.6866 14.22692879235770
1 18822U 88  6  A 92239.09606270  .00000216  00000-0  11317-3 0  4516
2 18822  98.5300 107.2384 0007719 105.3704 254.8342 14.22696358236653
1 18822U 88  6  A 92243.31580209  .00000220  00000-0  11489-3 0  4569
2 18822  98.5284 111.3232 0007703  94.0656 266.1397 14.22697812237254
1 18822U 88  6  A 92249.71573078  .00000077  00000-0  42525-4 0  4628
2 18822  98.5266 117.5195 0007674  79.9495 280.2555 14.22699507238167
1 18822U 88  6  A 92258.85846208  .00000109  00000-0  56773-4 0  4706
2 18822  98.5246 126.3697 0007561  56.1504 304.0378 14.22703795239460
1 18822U 88  6  A 92263.64080110  .00000098  00000-0  52043-4 0  4737
2 18822  98.5235 130.9988 0007339  43.6374 316.5369 14.22706174240140
1 18822U 88  6  A 92268.70444617  .00000171  00000-0  84818-4 0  4800
2 18822  98.5235 135.8994 0007300  29.2858 330.8725 14.22708588240861
1 18822U 88  6  A 92273.06480088  .00000175  00000-0  86661-4 0  4865
2 18822  98.5229 140.1181 0007033  18.6959 341.4471 14.22710377241482
1 18822U 88006  A 92277.07351538  .00000267  00000-0  11965-3 0 04896
2 18822 098.5204 143.9957 0007074 000.7874 359.3826 14.22712876242052
1 18822U 88006  A 92281.08221553  .00000269  00000-0  12025-3 0 04929
2 18822 098.5198 147.8747 0006856 349.4727 010.6821 14.22714965242627
1 18822U 88  6  A 92285.93483598  .00000251  00000-0  12862-3 0  5309
2 18822  98.5216 152.5707 0006480 341.7844  18.3107 14.22718086243312
1 18822U 88  6  A 92290.08417705  .00000287  00000-0  14444-3 0  5338
2 18822  98.5196 156.5842 0006200 329.9114  30.1697 14.22720961243907
1 18822U 88  6  A 92295.64006696  .00000189  00000-0  10109-3 0  5377
2 18822  98.5192 161.9582 0005832 312.5712  47.4974 14.22723119244690
1 18822U 88  6  A 92300.49267208  .00000191  00000-0  10241-3 0  5410
2 18822  98.5187 166.6518 0005676 296.6446  63.4157 14.22725384245381
1 18822U 88  6  A 92307.10345304  .00000794  00000-0  37131-3 0  5459
2 18822  98.5168 173.0457 0005673 276.1635  83.9069 14.22732517246324
1 18822U 88  6  A 92312.16701041  .00000314  00000-0  15632-3 0  5512
2 18822  98.5161 177.9404 0005423 253.3375 106.7196 14.22734401247042
1 18822U 88  6  A 92317.01957826  .00000313  00000-0  15632-3 0  5558
2 18822  98.5165 182.6342 0005452 239.4798 120.5834 14.22737682247739
1 18822U 88  6  A 92321.87213671  .00002021  00000-0  91760-3 0  5600
2 18822  98.5141 187.3266 0005601 221.6198 138.4595 14.22744293248428
1 18822U 88  6  A 92327.63893353  .00000275  00000-0  13962-3 0  5642
2 18822  98.5152 192.9027 0005838 203.5878 156.5044 14.22744153249249
1 18822U 88  6  A 92331.71787374  .00000983  00000-0  45565-3 0  5674
2 18822  98.5147 196.8470 0006230 189.9846 170.1243 14.22750507249824
1 18822U 88  6  A 92337.13300197  .00000406  00000-0  19794-3 0  5709
2 18822  98.5138 202.0815 0006367 174.2921 185.8312 14.22753828250594
1 18822U 88  6  A 92342.12615979  .00000397  00000-0  19369-3 0  5753
2 18822  98.5134 206.9084 0006645 160.0681 200.0747 14.22757557251301
1 18822U 88  6  A 92346.55669961  .00000398  00000-0  19369-3 0  5799
2 18822  98.5134 211.1913 0006876 147.7432 212.4158 14.22760414251930
1 18822U 88  6  A 92350.91690477  .00000398  00000-0  19369-3 0  5824
2 18822  98.5129 215.4071 0007081 136.6684 223.5052 14.22763230252555
1 18822U 88  6  A 92355.55840174  .00000397  00000-0  19369-3 0  5863
2 18822  98.5125 219.8937 0007188 123.7779 236.4081 14.22766564253212
1 18822U 88  6  A 92361.11411469  .00000398  00000-0  19369-3 0  5897
2 18822  98.5127 225.2642 0007380 109.3245 250.8726 14.22771070254002
1 18822U 88  6  A 93  1.09176248  .00000304  00000-0  15175-3 0  5932
2 18822  98.5123 231.0424 0007400  92.9169 267.2845 14.22774645254854
1 18822U 88  6  A 93  5.87385765  .00000250  00000-0  12830-3 0  5977
2 18822  98.5120 235.6646 0007463  81.1982 279.0046 14.22777128255538
1 18822U 88  6  A 93 11.07790471  .00000236  00000-0  12168-3 0  6003
2 18822  98.5118 240.6935 0007451  67.6758 292.5217 14.22779746256279
1 18822U 88  6  A 93 15.57870394  .00000255  00000-0  13023-3 0  6096
2 18822  98.5110 245.0433 0007447  56.4555 303.7331 14.22782445256912
1 18822U 88  6  A 93 20.07948388  .00000236  00000-0  12154-3 0  6123
2 18822  98.5104 249.3926 0007401  44.8811 315.2968 14.22784727257555
1 18822U 88  6  A 93 26.05707029  .00000199  00000-0  97098-4 0  6176
2 18822  98.5109 255.1697 0007206  29.5331 330.6238 14.22787256258406
1 18822U 88  6  A 93 32.10497092  .00000168  00000-0  82969-4 0  6240
2 18822  98.5098 261.0135 0007013  13.3085 346.8259 14.22789502259262
1 18822U 88  6  A 93 36.60572812  .00000159  00000-0  79308-4 0  6291
2 18822  98.5102 265.3625 0006784   0.7118 359.4081 14.22791138259902
1 18822U 88  6  A 93 42.09101579  .00000242  00000-0  12428-3 0  6358
2 18822  98.5095 270.6617 0006501 345.8414  14.2596 14.22794505260687
1 18822U 88  6  A 93 46.09948793  .00000228  00000-0  11850-3 0  6384
2 18822  98.5086 274.5337 0006284 333.9703  26.1156 14.22796594261254
1 18822U 88006  A 93053.06156874  .00000195  00000-0  87346-4 0 06422
2 18822 098.5055 281.2576 0006415 308.1931 051.9181 14.22799451262242
1 18822U 88  6  A 93 58.33584543  .00000222  00000-0  11550-3 0  6474
2 18822  98.5061 286.3518 0005762 295.6205  64.4377 14.22802865262991
1 18822U 88  6  A 93 64.52433006  .00000211  00000-0  11089-3 0  6575
2 18822  98.5056 292.3282 0005597 275.2028  84.8528 14.22805873263877
1 18822U 88  6  A 93 68.88438834  .00000283  00000-0  14274-3 0  6604
2 18822  98.5065 296.5403 0005568 260.6897  99.3672 14.22809143264492
